STARLINK-34394          
1 64669U 25139F   26011.47934512  .00015968  00000+0  54983-3 0  9996
2 64669  53.1591  32.8703 0001036  92.0557 268.0562 15.30216018 31525
STARLINK-34287          
1 64670U 25139G   26011.34238493  .00026383  00000+0  89941-3 0  9994
2 64670  53.1592  33.4371 0001224  92.3243 267.7898 15.30211460 31502
STARLINK-34365          
1 64671U 25139H   26011.42985874  .00025152  00000+0  85773-3 0  9998
2 64671  53.1609  33.2724 0001219  99.9433 260.1705 15.30228151 31576
STARLINK-34442          
1 64672U 25139J   26011.52460886  .00026404  00000+0  89963-3 0  9997
2 64672  53.1604  32.4376 0001479  90.1430 269.9740 15.30229118 31530
STARLINK-34288          
1 64673U 25139K   26011.46562707  .00017319  00000+0  59533-3 0  9991
2 64673  53.1598  32.7815 0001302  77.6125 282.5022 15.30208866 31520
STARLINK-34539          
1 64674U 25139L   26011.52144442  .00032468  00000+0  11029-2 0  9990
2 64674  53.1602  32.4185 0001767  64.3379 295.7805 15.30220435 31434
STARLINK-34590          
1 64675U 25139M   26011.44041186  .00020609  00000+0  70555-3 0  9997
2 64675  53.1603  33.3367 0001297  82.4831 277.6317 15.30222361 31516
STARLINK-34573          
1 64676U 25139N   26011.44663226  .00034264  00000+0  11627-2 0  9999
2 64676  53.1609  32.6630 0001320  84.2929 275.8222 15.30226742 31526
STARLINK-34605          
1 64677U 25139P   26011.34280492  .00023646  00000+0  59873-3 0  9997
2 64677  53.1599  24.2164 0001553  87.9794 272.1388 15.39648397 31630
STARLINK-34525          
1 64678U 25139Q   26011.43513498  .00025134  00000+0  85710-3 0  9996
2 64678  53.1601  33.3021 0001213  81.8405 278.2734 15.30228103 31512
STARLINK-34489          
1 64679U 25139R   26011.49411585  .00021789  00000+0  74514-3 0  9999
2 64679  53.1610  32.9571 0001347 108.5628 251.5519 15.30222244 31526
STARLINK-34502          
1 64680U 25139S   26011.51723697  .00029655  00000+0  10087-2 0  9998
2 64680  53.1603  32.3880 0001315  87.4291 272.6860 15.30221609 31531
STARLINK-34553          
1 64681U 25139T   26011.44559555  .00021937  00000+0  75120-3 0  9996
2 64681  53.1603  32.6512 0002412  93.0844 267.0432 15.30174006 31523
STARLINK-34551          
1 64682U 25139U   26011.34702663  .00047895  00000+0  11971-2 0  9990
2 64682  53.1588  23.5219 0001271  92.6111 267.5040 15.39690421 31649
STARLINK-34550          
1 64683U 25139V   26011.60152968  .00028161  00000+0  95869-3 0  9991
2 64683  53.1591  32.2052 0001238  86.1622 273.9520 15.30221378 31549
STARLINK-34485          
1 64684U 25139W   26011.48778471  .00017587  00000+0  60399-3 0  9991
2 64684  53.1601  32.9183 0001345  76.9671 283.1480 15.30227351 31527
