[{"OBJECT_NAME":"STARLINK-34394","OBJECT_ID":"2025-139F","EPOCH":"2026-01-11T11:30:15.418368","MEAN_MOTION":15.30216018,"ECCENTRICITY":0.00010366,"INCLINATION":53.1591,"RA_OF_ASC_NODE":32.8703,"ARG_OF_PERICENTER":92.0557,"MEAN_ANOMALY":268.0562,"EPHEMERIS_TYPE":0,"CLASSIFICATION_TYPE":"U","NORAD_CAT_ID":64669,"ELEMENT_SET_NO":999,"REV_AT_EPOCH":3152,"BSTAR":0.00054982582,"MEAN_MOTION_DOT":0.00015968,"MEAN_MOTION_DDOT":0},{"OBJECT_NAME":"STARLINK-34287","OBJECT_ID":"2025-139G","EPOCH":"2026-01-11T08:13:02.057952","MEAN_MOTION":15.3021146,"ECCENTRICITY":0.00012247,"INCLINATION":53.1592,"RA_OF_ASC_NODE":33.4371,"ARG_OF_PERICENTER":92.3243,"MEAN_ANOMALY":267.7898,"EPHEMERIS_TYPE":0,"CLASSIFICATION_TYPE":"U","NORAD_CAT_ID":64670,"ELEMENT_SET_NO":999,"REV_AT_EPOCH":3150,"BSTAR":0.00089940997,"MEAN_MOTION_DOT":0.00026383,"MEAN_MOTION_DDOT":0},{"OBJECT_NAME":"STARLINK-34365","OBJECT_ID":"2025-139H","EPOCH":"2026-01-11T10:18:59.795136","MEAN_MOTION":15.30228151,"ECCENTRICITY":0.00012199,"INCLINATION":53.1609,"RA_OF_ASC_NODE":33.2724,"ARG_OF_PERICENTER":99.9433,"MEAN_ANOMALY":260.1705,"EPHEMERIS_TYPE":0,"CLASSIFICATION_TYPE":"U","NORAD_CAT_ID":64671,"ELEMENT_SET_NO":999,"REV_AT_EPOCH":3157,"BSTAR":0.000857729,"MEAN_MOTION_DOT":0.00025152,"MEAN_MOTION_DDOT":0},{"OBJECT_NAME":"STARLINK-34442","OBJECT_ID":"2025-139J","EPOCH":"2026-01-11T12:35:26.205504","MEAN_MOTION":15.30229118,"ECCENTRICITY":0.0001479,"INCLINATION":53.1604,"RA_OF_ASC_NODE":32.4376,"ARG_OF_PERICENTER":90.143,"MEAN_ANOMALY":269.974,"EPHEMERIS_TYPE":0,"CLASSIFICATION_TYPE":"U","NORAD_CAT_ID":64672,"ELEMENT_SET_NO":999,"REV_AT_EPOCH":3153,"BSTAR":0.00089963053,"MEAN_MOTION_DOT":0.00026404,"MEAN_MOTION_DDOT":0},{"OBJECT_NAME":"STARLINK-34288","OBJECT_ID":"2025-139K","EPOCH":"2026-01-11T11:10:30.178848","MEAN_MOTION":15.30208866,"ECCENTRICITY":0.00013028,"INCLINATION":53.1598,"RA_OF_ASC_NODE":32.7815,"ARG_OF_PERICENTER":77.6125,"MEAN_ANOMALY":282.5022,"EPHEMERIS_TYPE":0,"CLASSIFICATION_TYPE":"U","NORAD_CAT_ID":64673,"ELEMENT_SET_NO":999,"REV_AT_EPOCH":3152,"BSTAR":0.00059533312,"MEAN_MOTION_DOT":0.00017319,"MEAN_MOTION_DDOT":0},{"OBJECT_NAME":"STARLINK-34539","OBJECT_ID":"2025-139L","EPOCH":"2026-01-11T12:30:52.797888","MEAN_MOTION":15.30220435,"ECCENTRICITY":0.00017671,"INCLINATION":53.1602,"RA_OF_ASC_NODE":32.4185,"ARG_OF_PERICENTER":64.3379,"MEAN_ANOMALY":295.7805,"EPHEMERIS_TYPE":0,"CLASSIFICATION_TYPE":"U","NORAD_CAT_ID":64674,"ELEMENT_SET_NO":999,"REV_AT_EPOCH":3143,"BSTAR":0.0011028729,"MEAN_MOTION_DOT":0.00032468,"MEAN_MOTION_DDOT":0},{"OBJECT_NAME":"STARLINK-34590","OBJECT_ID":"2025-139M","EPOCH":"2026-01-11T10:34:11.584704","MEAN_MOTION":15.30222361,"ECCENTRICITY":0.00012972,"INCLINATION":53.1603,"RA_OF_ASC_NODE":33.3367,"ARG_OF_PERICENTER":82.4831,"MEAN_ANOMALY":277.6317,"EPHEMERIS_TYPE":0,"CLASSIFICATION_TYPE":"U","NORAD_CAT_ID":64675,"ELEMENT_SET_NO":999,"REV_AT_EPOCH":3151,"BSTAR":0.00070554621,"MEAN_MOTION_DOT":0.00020609,"MEAN_MOTION_DDOT":0},{"OBJECT_NAME":"STARLINK-34573","OBJECT_ID":"2025-139N","EPOCH":"2026-01-11T10:43:09.027264","MEAN_MOTION":15.30226742,"ECCENTRICITY":0.00013206,"INCLINATION":53.1609,"RA_OF_ASC_NODE":32.663,"ARG_OF_PERICENTER":84.2929,"MEAN_ANOMALY":275.8222,"EPHEMERIS_TYPE":0,"CLASSIFICATION_TYPE":"U","NORAD_CAT_ID":64676,"ELEMENT_SET_NO":999,"REV_AT_EPOCH":3152,"BSTAR":0.001162714,"MEAN_MOTION_DOT":0.00034264,"MEAN_MOTION_DDOT":0},{"OBJECT_NAME":"STARLINK-34605","OBJECT_ID":"2025-139P","EPOCH":"2026-01-11T08:13:38.345088","MEAN_MOTION":15.39648397,"ECCENTRICITY":0.0001553,"INCLINATION":53.1599,"RA_OF_ASC_NODE":24.2164,"ARG_OF_PERICENTER":87.9794,"MEAN_ANOMALY":272.1388,"EPHEMERIS_TYPE":0,"CLASSIFICATION_TYPE":"U","NORAD_CAT_ID":64677,"ELEMENT_SET_NO":999,"REV_AT_EPOCH":3163,"BSTAR":0.00059872554,"MEAN_MOTION_DOT":0.00023646,"MEAN_MOTION_DDOT":0},{"OBJECT_NAME":"STARLINK-34525","OBJECT_ID":"2025-139Q","EPOCH":"2026-01-11T10:26:35.662272","MEAN_MOTION":15.30228103,"ECCENTRICITY":0.00012133,"INCLINATION":53.1601,"RA_OF_ASC_NODE":33.3021,"ARG_OF_PERICENTER":81.8405,"MEAN_ANOMALY":278.2734,"EPHEMERIS_TYPE":0,"CLASSIFICATION_TYPE":"U","NORAD_CAT_ID":64678,"ELEMENT_SET_NO":999,"REV_AT_EPOCH":3151,"BSTAR":0.00085709751,"MEAN_MOTION_DOT":0.00025134,"MEAN_MOTION_DDOT":0},{"OBJECT_NAME":"STARLINK-34489","OBJECT_ID":"2025-139R","EPOCH":"2026-01-11T11:51:31.609440","MEAN_MOTION":15.30222244,"ECCENTRICITY":0.00013475,"INCLINATION":53.161,"RA_OF_ASC_NODE":32.9571,"ARG_OF_PERICENTER":108.5628,"MEAN_ANOMALY":251.5519,"EPHEMERIS_TYPE":0,"CLASSIFICATION_TYPE":"U","NORAD_CAT_ID":64679,"ELEMENT_SET_NO":999,"REV_AT_EPOCH":3152,"BSTAR":0.00074513558,"MEAN_MOTION_DOT":0.00021789,"MEAN_MOTION_DDOT":0},{"OBJECT_NAME":"STARLINK-34502","OBJECT_ID":"2025-139S","EPOCH":"2026-01-11T12:24:49.274208","MEAN_MOTION":15.30221609,"ECCENTRICITY":0.00013159,"INCLINATION":53.1603,"RA_OF_ASC_NODE":32.388,"ARG_OF_PERICENTER":87.4291,"MEAN_ANOMALY":272.686,"EPHEMERIS_TYPE":0,"CLASSIFICATION_TYPE":"U","NORAD_CAT_ID":64680,"ELEMENT_SET_NO":999,"REV_AT_EPOCH":3153,"BSTAR":0.0010087092,"MEAN_MOTION_DOT":0.00029655,"MEAN_MOTION_DDOT":0},{"OBJECT_NAME":"STARLINK-34553","OBJECT_ID":"2025-139T","EPOCH":"2026-01-11T10:41:39.455520","MEAN_MOTION":15.30174006,"ECCENTRICITY":0.00024128,"INCLINATION":53.1603,"RA_OF_ASC_NODE":32.6512,"ARG_OF_PERICENTER":93.0844,"MEAN_ANOMALY":267.0432,"EPHEMERIS_TYPE":0,"CLASSIFICATION_TYPE":"U","NORAD_CAT_ID":64681,"ELEMENT_SET_NO":999,"REV_AT_EPOCH":3152,"BSTAR":0.00075119672,"MEAN_MOTION_DOT":0.00021937,"MEAN_MOTION_DDOT":0},{"OBJECT_NAME":"STARLINK-34551","OBJECT_ID":"2025-139U","EPOCH":"2026-01-11T08:19:43.100832","MEAN_MOTION":15.39690421,"ECCENTRICITY":0.00012717,"INCLINATION":53.1588,"RA_OF_ASC_NODE":23.5219,"ARG_OF_PERICENTER":92.6111,"MEAN_ANOMALY":267.504,"EPHEMERIS_TYPE":0,"CLASSIFICATION_TYPE":"U","NORAD_CAT_ID":64682,"ELEMENT_SET_NO":999,"REV_AT_EPOCH":3164,"BSTAR":0.0011970839,"MEAN_MOTION_DOT":0.00047895,"MEAN_MOTION_DDOT":0},{"OBJECT_NAME":"STARLINK-34550","OBJECT_ID":"2025-139V","EPOCH":"2026-01-11T14:26:12.164352","MEAN_MOTION":15.30221378,"ECCENTRICITY":0.0001238,"INCLINATION":53.1591,"RA_OF_ASC_NODE":32.2052,"ARG_OF_PERICENTER":86.1622,"MEAN_ANOMALY":273.952,"EPHEMERIS_TYPE":0,"CLASSIFICATION_TYPE":"U","NORAD_CAT_ID":64683,"ELEMENT_SET_NO":999,"REV_AT_EPOCH":3154,"BSTAR":0.00095868955,"MEAN_MOTION_DOT":0.00028161,"MEAN_MOTION_DDOT":0},{"OBJECT_NAME":"STARLINK-34485","OBJECT_ID":"2025-139W","EPOCH":"2026-01-11T11:42:24.598944","MEAN_MOTION":15.30227351,"ECCENTRICITY":0.00013458,"INCLINATION":53.1601,"RA_OF_ASC_NODE":32.9183,"ARG_OF_PERICENTER":76.9671,"MEAN_ANOMALY":283.148,"EPHEMERIS_TYPE":0,"CLASSIFICATION_TYPE":"U","NORAD_CAT_ID":64684,"ELEMENT_SET_NO":999,"REV_AT_EPOCH":3152,"BSTAR":0.00060399382,"MEAN_MOTION_DOT":0.00017587,"MEAN_MOTION_DDOT":0}]
